{"type": "FeatureCollection", "features": [ {"type": "Feature", "properties": {"norad_id": 34738, "name": "COSMOS 2251 DEB", "group": "cosmos-2251-debris", "lat": 43.43008785804201, "lon": 138.51396510848218, "alt_km": 759.0575950781904, "timestamp": "2025-12-23T16:57:12.749870+00:00", "meta": {"OBJECT_NAME": "COSMOS 2251 DEB", "OBJECT_ID": "1993-036ZG", "EPOCH": "2025-12-23T03:45:05.386176", "MEAN_MOTION": 14.46325174, "ECCENTRICITY": 0.00475465, "INCLINATION": 74.0155, "RA_OF_ASC_NODE": 123.7973, "ARG_OF_PERICENTER": 268.1538, "MEAN_ANOMALY": 154.2091, "EPHEMERIS_TYPE": 0, "CLASSIFICATION_TYPE": "U", "NORAD_CAT_ID": 34738, "ELEMENT_SET_NO": 999, "REV_AT_EPOCH": 88009, "BSTAR": 0.00030237653, "MEAN_MOTION_DOT": 1.071e-05, "MEAN_MOTION_DDOT": 0}, "tle": {"line1": "1 34738U 93036ZG  25357.15631234  .00001071  00000+0  30238-3 0  9990", "line2": "2 34738  74.0155 123.7973 0047546 268.1538 154.2091 14.46325174880094"}}, "geometry": {"type": "Point", "coordinates": [138.51396510848218, 43.43008785804201]}}, {"type": "Feature", "properties": {"norad_id": 34750, "name": "COSMOS 2251 DEB", "group": "cosmos-2251-debris", "lat": 69.28985271080906, "lon": -130.22241455862735, "alt_km": 665.3668696082104, "timestamp": "2025-12-23T16:57:12.749879+00:00", "meta": {"OBJECT_NAME": "COSMOS 2251 DEB", "OBJECT_ID": "1993-036ZU", "EPOCH": "2025-12-22T12:48:37.447200", "MEAN_MOTION": 14.61412176, "ECCENTRICITY": 0.0038418, "INCLINATION": 74.1065, "RA_OF_ASC_NODE": 183.1044, "ARG_OF_PERICENTER": 132.8514, "MEAN_ANOMALY": 257.3018, "EPHEMERIS_TYPE": 0, "CLASSIFICATION_TYPE": "U", "NORAD_CAT_ID": 34750, "ELEMENT_SET_NO": 999, "REV_AT_EPOCH": 88374, "BSTAR": 0.00113959, "MEAN_MOTION_DOT": 5.675e-05, "MEAN_MOTION_DDOT": 0}, "tle": {"line1": "1 34750U 93036ZU  25356.53376675  .00005675  00000+0  11396-2 0  9997", "line2": "2 34750  74.1065 183.1044 0038418 132.8514 257.3018 14.61412176883742"}}, "geometry": {"type": "Point", "coordinates": [-130.22241455862735, 69.28985271080906]}}, {"type": "Feature", "properties": {"norad_id": 34752, "name": "COSMOS 2251 DEB", "group": "cosmos-2251-debris", "lat": -53.55977566494522, "lon": -44.56591571323274, "alt_km": 603.9748178084992, "timestamp": "2025-12-23T16:57:12.749890+00:00", "meta": {"OBJECT_NAME": "COSMOS 2251 DEB", "OBJECT_ID": "1993-036ZW", "EPOCH": "2025-12-23T01:12:09.902304", "MEAN_MOTION": 15.00151807, "ECCENTRICITY": 0.00474654, "INCLINATION": 74.0138, "RA_OF_ASC_NODE": 339.6166, "ARG_OF_PERICENTER": 104.7129, "MEAN_ANOMALY": 255.9325, "EPHEMERIS_TYPE": 0, "CLASSIFICATION_TYPE": "U", "NORAD_CAT_ID": 34752, "ELEMENT_SET_NO": 999, "REV_AT_EPOCH": 90004, "BSTAR": 0.0010897318, "MEAN_MOTION_DOT": 0.00013923, "MEAN_MOTION_DDOT": 0}, "tle": {"line1": "1 34752U 93036ZW  25357.05011461  .00013923  00000+0  10897-2 0  9996", "line2": "2 34752  74.0138 339.6166 0047465 104.7129 255.9325 15.00151807900042"}}, "geometry": {"type": "Point", "coordinates": [-44.56591571323274, -53.55977566494522]}}, {"type": "Feature", "properties": {"norad_id": 34754, "name": "COSMOS 2251 DEB", "group": "cosmos-2251-debris", "lat": 73.93782452001223, "lon": -68.61556738875197, "alt_km": 762.2815182541653, "timestamp": "2025-12-23T16:57:12.749900+00:00", "meta": {"OBJECT_NAME": "COSMOS 2251 DEB", "OBJECT_ID": "1993-036ZY", "EPOCH": "2025-12-22T14:01:00.618816", "MEAN_MOTION": 14.40494534, "ECCENTRICITY": 0.00299317, "INCLINATION": 74.0293, "RA_OF_ASC_NODE": 209.393, "ARG_OF_PERICENTER": 323.6263, "MEAN_ANOMALY": 66.4846, "EPHEMERIS_TYPE": 0, "CLASSIFICATION_TYPE": "U", "NORAD_CAT_ID": 34754, "ELEMENT_SET_NO": 999, "REV_AT_EPOCH": 88275, "BSTAR": 0.00017314509, "MEAN_MOTION_DOT": 5.27e-06, "MEAN_MOTION_DDOT": 0}, "tle": {"line1": "1 34754U 93036ZY  25356.58403494  .00000527  00000+0  17315-3 0  9995", "line2": "2 34754  74.0293 209.3930 0029931 323.6263  66.4846 14.40494534882757"}}, "geometry": {"type": "Point", "coordinates": [-68.61556738875197, 73.93782452001223]}}, {"type": "Feature", "properties": {"norad_id": 34755, "name": "COSMOS 2251 DEB", "group": "cosmos-2251-debris", "lat": -61.81232945668685, "lon": 124.94756631100077, "alt_km": 851.6642348709474, "timestamp": "2025-12-23T16:57:12.749910+00:00", "meta": {"OBJECT_NAME": "COSMOS 2251 DEB", "OBJECT_ID": "1993-036ZZ", "EPOCH": "2025-12-20T18:30:29.240064", "MEAN_MOTION": 13.50572591, "ECCENTRICITY": 0.04081275, "INCLINATION": 73.9255, "RA_OF_ASC_NODE": 277.1155, "ARG_OF_PERICENTER": 295.5233, "MEAN_ANOMALY": 88.1239, "EPHEMERIS_TYPE": 0, "CLASSIFICATION_TYPE": "U", "NORAD_CAT_ID": 34755, "ELEMENT_SET_NO": 999, "REV_AT_EPOCH": 82632, "BSTAR": 0.00057435404, "MEAN_MOTION_DOT": 5.95e-06, "MEAN_MOTION_DDOT": 0}, "tle": {"line1": "1 34755U 93036ZZ  25354.77117176  .00000595  00000+0  57435-3 0  9996", "line2": "2 34755  73.9255 277.1155 0408127 295.5233  88.1239 13.50572591826326"}}, "geometry": {"type": "Point", "coordinates": [124.94756631100077, -61.81232945668685]}}, {"type": "Feature", "properties": {"norad_id": 34756, "name": "COSMOS 2251 DEB", "group": "cosmos-2251-debris", "lat": 72.7197179449803, "lon": -160.90297980446888, "alt_km": 1183.9981560863607, "timestamp": "2025-12-23T16:57:12.749921+00:00", "meta": {"OBJECT_NAME": "COSMOS 2251 DEB", "OBJECT_ID": "1993-036AAA", "EPOCH": "2025-12-22T12:23:20.340096", "MEAN_MOTION": 13.6726693, "ECCENTRICITY": 0.03457457, "INCLINATION": 74.0031, "RA_OF_ASC_NODE": 88.2919, "ARG_OF_PERICENTER": 322.0021, "MEAN_ANOMALY": 35.7148, "EPHEMERIS_TYPE": 0, "CLASSIFICATION_TYPE": "U", "NORAD_CAT_ID": 34756, "ELEMENT_SET_NO": 999, "REV_AT_EPOCH": 83555, "BSTAR": 0.0010168028, "MEAN_MOTION_DOT": 1.267e-05, "MEAN_MOTION_DDOT": 0}, "tle": {"line1": "1 34756U 93036AAA 25356.51620764  .00001267  00000+0  10168-2 0  9991", "line2": "2 34756  74.0031  88.2919 0345745 322.0021  35.7148 13.67266930835554"}}, "geometry": {"type": "Point", "coordinates": [-160.90297980446888, 72.7197179449803]}}, {"type": "Feature", "properties": {"norad_id": 34758, "name": "COSMOS 2251 DEB", "group": "cosmos-2251-debris", "lat": -24.936792737541754, "lon": 109.45951247419225, "alt_km": 1317.8743925705994, "timestamp": "2025-12-23T16:57:12.749932+00:00", "meta": {"OBJECT_NAME": "COSMOS 2251 DEB", "OBJECT_ID": "1993-036AAC", "EPOCH": "2025-12-23T01:49:17.476608", "MEAN_MOTION": 13.58107356, "ECCENTRICITY": 0.03822072, "INCLINATION": 74.107, "RA_OF_ASC_NODE": 282.8618, "ARG_OF_PERICENTER": 44.1617, "MEAN_ANOMALY": 318.934, "EPHEMERIS_TYPE": 0, "CLASSIFICATION_TYPE": "U", "NORAD_CAT_ID": 34758, "ELEMENT_SET_NO": 999, "REV_AT_EPOCH": 83050, "BSTAR": 0.0017020771, "MEAN_MOTION_DOT": 1.966e-05, "MEAN_MOTION_DDOT": 0}, "tle": {"line1": "1 34758U 93036AAC 25357.07589672  .00001966  00000+0  17021-2 0  9998", "line2": "2 34758  74.1070 282.8618 0382207  44.1617 318.9340 13.58107356830501"}}, "geometry": {"type": "Point", "coordinates": [109.45951247419225, -24.936792737541754]}}, {"type": "Feature", "properties": {"norad_id": 34760, "name": "COSMOS 2251 DEB", "group": "cosmos-2251-debris", "lat": 0.9630037764735234, "lon": -76.93649319248094, "alt_km": 767.5329451637272, "timestamp": "2025-12-23T16:57:12.749942+00:00", "meta": {"OBJECT_NAME": "COSMOS 2251 DEB", "OBJECT_ID": "1993-036AAE", "EPOCH": "2025-12-23T03:43:05.079360", "MEAN_MOTION": 14.19595173, "ECCENTRICITY": 0.00972201, "INCLINATION": 74.0632, "RA_OF_ASC_NODE": 283.7721, "ARG_OF_PERICENTER": 333.614, "MEAN_ANOMALY": 89.7391, "EPHEMERIS_TYPE": 0, "CLASSIFICATION_TYPE": "U", "NORAD_CAT_ID": 34760, "ELEMENT_SET_NO": 999, "REV_AT_EPOCH": 86836, "BSTAR": 0.00053269604, "MEAN_MOTION_DOT": 1.153e-05, "MEAN_MOTION_DDOT": 0}, "tle": {"line1": "1 34760U 93036AAE 25357.15491990  .00001153  00000+0  53270-3 0  9990", "line2": "2 34760  74.0632 283.7721 0097220 333.6140  89.7391 14.19595173868367"}}, "geometry": {"type": "Point", "coordinates": [-76.93649319248094, 0.9630037764735234]}}, {"type": "Feature", "properties": {"norad_id": 34761, "name": "COSMOS 2251 DEB", "group": "cosmos-2251-debris", "lat": -65.18748689134833, "lon": -55.69538113994322, "alt_km": 769.0154425739574, "timestamp": "2025-12-23T16:57:12.749953+00:00", "meta": {"OBJECT_NAME": "COSMOS 2251 DEB", "OBJECT_ID": "1993-036AAF", "EPOCH": "2025-12-23T05:35:37.346496", "MEAN_MOTION": 14.38085357, "ECCENTRICITY": 0.00369815, "INCLINATION": 74.0286, "RA_OF_ASC_NODE": 343.4526, "ARG_OF_PERICENTER": 14.65, "MEAN_ANOMALY": 345.5717, "EPHEMERIS_TYPE": 0, "CLASSIFICATION_TYPE": "U", "NORAD_CAT_ID": 34761, "ELEMENT_SET_NO": 999, "REV_AT_EPOCH": 87800, "BSTAR": 0.00059051219, "MEAN_MOTION_DOT": 1.777e-05, "MEAN_MOTION_DDOT": 0}, "tle": {"line1": "1 34761U 93036AAF 25357.23307114  .00001777  00000+0  59051-3 0  9999", "line2": "2 34761  74.0286 343.4526 0036981  14.6500 345.5717 14.38085357878009"}}, "geometry": {"type": "Point", "coordinates": [-55.69538113994322, -65.18748689134833]}}, {"type": "Feature", "properties": {"norad_id": 34784, "name": "COSMOS 2251 DEB", "group": "cosmos-2251-debris", "lat": -22.117020877957355, "lon": -63.32827157803089, "alt_km": 718.8777498144791, "timestamp": "2025-12-23T16:57:12.749962+00:00", "meta": {"OBJECT_NAME": "COSMOS 2251 DEB", "OBJECT_ID": "1993-036AAM", "EPOCH": "2025-12-22T03:15:24.680448", "MEAN_MOTION": 14.60818726, "ECCENTRICITY": 0.00491808, "INCLINATION": 74.0079, "RA_OF_ASC_NODE": 306.3699, "ARG_OF_PERICENTER": 112.8499, "MEAN_ANOMALY": 247.7872, "EPHEMERIS_TYPE": 0, "CLASSIFICATION_TYPE": "U", "NORAD_CAT_ID": 34784, "ELEMENT_SET_NO": 999, "REV_AT_EPOCH": 88672, "BSTAR": 0.00046694369, "MEAN_MOTION_DOT": 2.29e-05, "MEAN_MOTION_DDOT": 0}, "tle": {"line1": "1 34784U 93036AAM 25356.13570232  .00002290  00000+0  46694-3 0  9995", "line2": "2 34784  74.0079 306.3699 0049180 112.8499 247.7872 14.60818726886728"}}, "geometry": {"type": "Point", "coordinates": [-63.32827157803089, -22.117020877957355]}}]}